0 THORAD DELTA 1 DEB
1 08152U 74089S   13282.57650097  .00000042  00000-0  49028-3 0  9979
2 08152 101.3124 269.4689 0057757 088.5452 032.7204 12.59571624787414
0 THORAD DELTA 1 DEB
1 08152U 74089S   13287.50062182  .00000000  00000-0  24742-3 0  9991
2 08152 101.3127 274.2175 0057789 078.8563 040.8476 12.59572534788032
0 THORAD DELTA 1 DEB
1 08152U 74089S   13289.56612124 -.00000001  00000-0  24030-3 0    01
2 08152 101.3130 276.2092 0057791 074.7893 046.7383 12.59572880788294
0 THORAD DELTA 1 DEB
1 08152U 74089S   13292.43256869  .00000022  00000-0  37103-3 0    19
2 08152 101.3137 278.9732 0057775 069.1365 084.4955 12.59573176788658
0 THORAD DELTA 1 DEB
1 08152U 74089S   13294.48937747  .00000024  00000-0  38651-3 0    29
2 08152 101.3139 280.9567 0057805 065.0861 050.9828 12.59573168788916
